NORAD_CAT_ID,OBJECT_NAME,OBJECT_TYPE,EPOCH,MEAN_MOTION,ECCENTRICITY,INCLINATION,RA_OF_ASC_NODE,ARG_OF_PERICENTER,MEAN_ANOMALY,BSTAR,MEAN_MOTION_DOT,MEAN_MOTION_DDOT,TLE_LINE0,TLE_LINE1,TLE_LINE2,SEMIMAJOR_AXIS,PERIOD,APOGEE,PERIGEE,DECAYED
56808.0,STARLINK-6042,PAYLOAD,2024-06-06 06:00:40,15.19261027,0.0003106,69.9989,108.9678,268.4812,91.6002,-4.1105e-05,-9.83e-06,0.0,0 STARLINK-6042,1 56808U 23078AT  24158.25047101 -.00000983  00000-0 -41105-4 0  9994,2 56808  69.9989 108.9678 0003106 268.4812  91.6002 15.19261027 58161,6886.21,94.783,510.214,505.936,0.0
56808.0,STARLINK-6042,PAYLOAD,2024-06-06 20:13:58,15.1926005,0.0003053,69.9989,107.4245,267.6221,92.46,-2.4779e-06,-1.67e-06,0.0,0 STARLINK-6042,1 56808U 23078AT  24158.84303525 -.00000167  00000-0 -24779-5 0  9997,2 56808  69.9989 107.4245 0003053 267.6221  92.4600 15.19260050 57999,6886.213,94.783,510.18,505.975,0.0
56808.0,STARLINK-6042,PAYLOAD,2024-06-07 23:05:45,15.1925629,0.0003067,69.9986,104.5092,267.7255,92.3564,4.5379e-06,-1.8e-07,0.0,0 STARLINK-6042,1 56808U 23078AT  24159.96232756 -.00000018  00000-0  45379-5 0  9991,2 56808  69.9986 104.5092 0003067 267.7255  92.3564 15.19256290 58166,6886.224,94.783,510.201,505.977,0.0
56808.0,STARLINK-6042,PAYLOAD,2024-06-08 03:50:10,15.19258042,0.0002951,69.9988,103.9932,262.2027,97.8808,1.0233e-05,1.02e-06,0.0,0 STARLINK-6042,1 56808U 23078AT  24160.15984822  .00000102  00000-0  10233-4 0  9995,2 56808  69.9988 103.9932 0002951 262.2027  97.8808 15.19258042 58452,6886.219,94.783,510.116,506.052,0.0
56808.0,STARLINK-6042,PAYLOAD,2024-06-08 13:19:02,15.19258171,0.0002984,69.9988,102.9656,267.981,92.1019,1.8828e-05,2.84e-06,0.0,0 STARLINK-6042,1 56808U 23078AT  24160.55489187  .00000284  00000-0  18828-4 0  9992,2 56808  69.9988 102.9656 0002984 267.9810  92.1019 15.19258171 58255,6886.218,94.783,510.138,506.028,0.0
56808.0,STARLINK-6042,PAYLOAD,2024-06-08 22:47:54,15.19261681,0.0002936,69.9989,101.9368,268.5849,91.4984,-8.1091e-06,-2.86e-06,0.0,0 STARLINK-6042,1 56808U 23078AT  24160.94993471 -.00000286  00000-0 -81091-5 0  9998,2 56808  69.9989 101.9368 0002936 268.5849  91.4984 15.19261681 58311,6886.208,94.783,510.095,506.051,0.0
56808.0,STARLINK-6042,PAYLOAD,2024-06-09 05:07:08,15.19263157,0.0002896,69.999,101.2509,268.1504,91.9334,2.5879e-06,-6e-07,0.0,0 STARLINK-6042,1 56808U 23078AT  24161.21329538 -.00000060  00000-0  25879-5 0  9997,2 56808  69.9990 101.2509 0002896 268.1504  91.9334 15.19263157 58619,6886.203,94.783,510.062,506.074,0.0
56808.0,STARLINK-6042,PAYLOAD,2024-06-09 22:30:03,15.19257666,0.0002865,69.999,99.3648,268.0528,92.0314,-1.0855e-05,-3.44e-06,0.0,0 STARLINK-6042,1 56808U 23078AT  24161.93754614 -.00000344  00000-0 -10855-4 0  9996,2 56808  69.9990  99.3648 0002865 268.0528  92.0314 15.19257666 58462,6886.22,94.783,510.058,506.112,0.0
56808.0,STARLINK-6042,PAYLOAD,2024-06-10 04:49:18,15.19258077,0.0002841,69.9991,98.679,267.9237,92.1607,-7.3918e-06,-2.71e-06,0.0,0 STARLINK-6042,1 56808U 23078AT  24162.20090848 -.00000271  00000-0 -73918-5 0  9998,2 56808  69.9991  98.6790 0002841 267.9237  92.1607 15.19258077 58768,6886.219,94.783,510.04,506.127,0.0
56808.0,STARLINK-6042,PAYLOAD,2024-06-10 22:12:13,15.19261313,0.0002838,69.9992,96.7928,269.1496,90.9349,-1.7703e-06,-1.52e-06,0.0,0 STARLINK-6042,1 56808U 23078AT  24162.92515285 -.00000152  00000-0 -17703-5 0  9992,2 56808  69.9992  96.7928 0002838 269.1496  90.9349 15.19261313 58618,6886.209,94.783,510.028,506.12,0.0
56808.0,STARLINK-6042,PAYLOAD,2024-06-11 12:25:30,15.19261013,0.0002794,69.9992,95.2492,269.4932,90.5917,7.3281e-06,4.1e-07,0.0,0 STARLINK-6042,1 56808U 23078AT  24163.51771733  .00000041  00000-0  73281-5 0  9998,2 56808  69.9992  95.2492 0002794 269.4932  90.5917 15.19261013 58701,6886.21,94.783,509.999,506.151,0.0
56808.0,STARLINK-6042,PAYLOAD,2024-06-12 04:13:37,15.19260515,0.0002793,69.9992,93.5347,269.244,90.8409,1.5138e-05,2.06e-06,0.0,0 STARLINK-6042,1 56808U 23078AT  24164.17612294  .00000206  00000-0  15138-4 0  9996,2 56808  69.9992  93.5347 0002793 269.2440  90.8409 15.19260515 59067,6886.211,94.783,510.0,506.153,0.0
56808.0,STARLINK-6042,PAYLOAD,2024-06-12 21:36:32,15.19258184,0.0002742,69.9992,91.6486,270.7702,89.3153,-2.9602e-05,-7.4e-06,0.0,0 STARLINK-6042,1 56808U 23078AT  24164.90037350 -.00000740  00000-0 -29602-4 0  9997,2 56808  69.9992  91.6486 0002742 270.7702  89.3153 15.19258184 58913,6886.218,94.783,509.971,506.195,0.0
56808.0,STARLINK-6042,PAYLOAD,2024-06-13 11:49:49,15.19260173,0.0002728,69.9994,90.1055,271.8403,88.2455,-1.4639e-05,-4.24e-06,0.0,0 STARLINK-6042,1 56808U 23078AT  24165.49293754 -.00000424  00000-0 -14639-4 0  9997,2 56808  69.9994  90.1055 0002728 271.8403  88.2455 15.19260173 59268,6886.212,94.783,509.956,506.199,0.0
56808.0,STARLINK-6042,PAYLOAD,2024-06-13 22:53:29,15.19262485,0.0002779,69.9993,88.9049,273.9854,86.0998,1.1429e-05,1.27e-06,0.0,0 STARLINK-6042,1 56808U 23078AT  24165.95381862  .00000127  00000-0  11429-4 0  9998,2 56808  69.9993  88.9049 0002779 273.9854  86.0998 15.19262485 59079,6886.205,94.783,509.984,506.157,0.0
56808.0,STARLINK-6042,PAYLOAD,2024-06-14 03:37:55,15.19262969,0.0002784,69.9993,88.3905,273.7264,86.3588,7.6832e-06,4.8e-07,0.0,0 STARLINK-6042,1 56808U 23078AT  24166.15134009  .00000048  00000-0  76832-5 0  9992,2 56808  69.9993  88.3905 0002784 273.7264  86.3588 15.19262969 59102,6886.204,94.783,509.986,506.152,0.0
56808.0,STARLINK-6042,PAYLOAD,2024-06-14 22:35:39,15.19259241,0.0002799,69.9993,86.3328,274.387,85.698,2.5567e-05,4.26e-06,0.0,0 STARLINK-6042,1 56808U 23078AT  24166.94142833  .00000426  00000-0  25567-4 0  9991,2 56808  69.9993  86.3328 0002799 274.3870  85.6980 15.19259241 59225,6886.215,94.783,510.008,506.153,0.0
56808.0,STARLINK-6042,PAYLOAD,2024-06-15 04:54:53,15.19261311,0.00028,69.9993,85.647,273.14,86.9449,2.4149e-05,3.96e-06,0.0,0 STARLINK-6042,1 56808U 23078AT  24167.20478942  .00000396  00000-0  24149-4 0  9995,2 56808  69.9993  85.6470 0002800 273.1400  86.9449 15.19261311 59263,6886.209,94.783,510.002,506.146,0.0
56808.0,STARLINK-6042,PAYLOAD,2024-06-15 22:17:48,15.19262005,0.0002708,69.9995,83.7611,273.3123,86.7737,-1.2757e-05,-3.84e-06,0.0,0 STARLINK-6042,1 56808U 23078AT  24167.92903693 -.00000384  00000-0 -12757-4 0  9991,2 56808  69.9995  83.7611 0002708 273.3123  86.7737 15.19262005 59373,6886.207,94.783,509.937,506.207,0.0
56808.0,STARLINK-6042,PAYLOAD,2024-06-16 04:37:03,15.19263521,0.000264,69.9995,83.0757,270.7043,89.3824,1.4514e-06,-8.4e-07,0.0,0 STARLINK-6042,1 56808U 23078AT  24168.19239723 -.00000084  00000-0  14514-5 0  9997,2 56808  69.9995  83.0757 0002640 270.7043  89.3824 15.19263521 59419,6886.202,94.783,509.885,506.249,0.0
56808.0,STARLINK-6042,PAYLOAD,2024-06-16 21:59:58,15.19260196,0.0002604,69.9995,81.1898,268.8865,91.2006,-7.3581e-06,-2.7e-06,0.0,0 STARLINK-6042,1 56808U 23078AT  24168.91664543 -.00000270  00000-0 -73581-5 0  9996,2 56808  69.9995  81.1898 0002604 268.8865  91.2006 15.19260196 59525,6886.212,94.783,509.87,506.284,0.0
56808.0,STARLINK-6042,PAYLOAD,2024-06-17 20:07:18,15.19261756,0.0002629,69.9993,78.7894,268.8332,91.2536,-1.5175e-06,-1.46e-06,0.0,0 STARLINK-6042,1 56808U 23078AT  24169.83841269 -.00000146  00000-0 -15175-5 0  9997,2 56808  69.9993  78.7894 0002629 268.8332  91.2536 15.19261756 59922,6886.207,94.783,509.883,506.262,0.0
56808.0,STARLINK-6042,PAYLOAD,2024-06-17 21:42:07,15.19261795,0.0002635,69.9994,78.6179,269.0804,91.0064,-1.0695e-06,-1.37e-06,0.0,0 STARLINK-6042,1 56808U 23078AT  24169.90425322 -.00000137  00000-0 -10695-5 0  9995,2 56808  69.9994  78.6179 0002635 269.0804  91.0064 15.19261795 59671,6886.207,94.783,509.887,506.258,0.0
56808.0,STARLINK-6042,PAYLOAD,2024-06-18 04:01:22,15.1926129,0.0002653,69.9994,77.932,268.0062,92.0804,-4.2373e-06,-2.04e-06,0.0,0 STARLINK-6042,1 56808U 23078AT  24170.16761600 -.00000204  00000-0 -42373-5 0  9990,2 56808  69.9994  77.9320 0002653 268.0062  92.0804 15.19261290 59714,6886.209,94.783,509.901,506.247,0.0
56808.0,STARLINK-6042,PAYLOAD,2024-06-18 21:24:16,15.19260273,0.000271,69.9993,76.0457,269.234,90.8519,1.1484e-05,1.28e-06,0.0,0 STARLINK-6042,1 56808U 23078AT  24170.89186237  .00000128  00000-0  11484-4 0  9998,2 56808  69.9993  76.0457 0002710 269.2340  90.8519 15.19260273 59821,6886.212,94.783,509.943,506.211,0.0
56808.0,STARLINK-6042,PAYLOAD,2024-06-19 03:43:31,15.19260177,0.0002726,69.9992,75.3597,270.0745,90.0112,9.9926e-06,9.7e-07,0.0,0 STARLINK-6042,1 56808U 23078AT  24171.15522508  .00000097  00000-0  99926-5 0  9996,2 56808  69.9992  75.3597 0002726 270.0745  90.0112 15.19260177 60122,6886.212,94.783,509.954,506.2,0.0
56808.0,STARLINK-6042,PAYLOAD,2024-06-19 21:06:26,15.19260508,0.0002761,69.9991,73.4731,271.3725,88.7128,4.286e-06,-2.4e-07,0.0,0 STARLINK-6042,1 56808U 23078AT  24171.87947191 -.00000024  00000-0  42860-5 0  9990,2 56808  69.9991  73.4731 0002761 271.3725  88.7128 15.19260508 59971,6886.211,94.783,509.978,506.175,0.0
56808.0,STARLINK-6042,PAYLOAD,2024-06-20 03:25:40,15.19260686,0.0002766,69.9992,72.7872,271.6862,88.3991,5.8466e-06,9e-08,0.0,0 STARLINK-6042,1 56808U 23078AT  24172.14283421  .00000009  00000-0  58466-5 0  9991,2 56808  69.9992  72.7872 0002766 271.6862  88.3991 15.19260686 60018,6886.211,94.783,509.98,506.171,0.0
56808.0,STARLINK-6042,PAYLOAD,2024-06-20 20:48:35,15.1926027,0.0002785,69.9991,70.9006,272.3475,87.7376,4.933e-06,-1e-07,0.0,0 STARLINK-6042,1 56808U 23078AT  24172.86708107 -.00000010  00000-0  49330-5 0  9996,2 56808  69.9991  70.9006 0002785 272.3475  87.7376 15.19260270 60384,6886.212,94.783,509.995,506.159,0.0
56808.0,STARLINK-6042,PAYLOAD,2024-06-21 03:07:50,15.19261168,0.0002793,69.9991,70.2151,269.7696,90.3153,9.6597e-06,9e-07,0.0,0 STARLINK-6042,1 56808U 23078AT  24173.13044249  .00000090  00000-0  96597-5 0  9991,2 56808  69.9991  70.2151 0002793 269.7696  90.3153 15.19261168 60168,6886.209,94.783,509.998,506.151,0.0
